{
  "type": "FeatureCollection",
  "features": [
    {
      "type": "Feature",
      "properties": {
        "norad_id": 47059,
        "name": "COSMOS 2251 DEB",
        "group": "cosmos-2251-debris",
        "lat": 68.97096638607414,
        "lon": -60.56095763979658,
        "alt_km": 516.7834807062654,
        "timestamp": "2025-12-05T04:52:15.688404+00:00",
        "meta_object_name": "COSMOS 2251 DEB",
        "meta_object_id": "1993-036BXP",
        "meta_epoch": "2025-11-30T02:15:08.813664",
        "meta_mean_motion": 15.10829083,
        "meta_eccentricity": 0.00120344,
        "meta_inclination": 73.9823,
        "meta_ra_of_asc_node": 261.6801,
        "meta_arg_of_pericenter": 69.4658,
        "meta_mean_anomaly": 304.3449,
        "meta_ephemeris_type": 0,
        "meta_classification_type": "U",
        "meta_norad_cat_id": 47059,
        "meta_element_set_no": 999,
        "meta_rev_at_epoch": 8114,
        "meta_bstar": 0.003761596,
        "meta_mean_motion_dot": 0.00063166,
        "meta_mean_motion_ddot": 0,
        "tle_line1": "1 47059U 93036BXP 25334.09385201  .00063166  00000+0  37616-2 0  9997",
        "tle_line2": "2 47059  73.9823 261.6801 0012034  69.4658 304.3449 15.10829083 81149"
      },
      "geometry": {
        "type": "Point",
        "coordinates": [
          -60.56095763979658,
          68.97096638607414
        ]
      }
    },
    {
      "type": "Feature",
      "properties": {
        "norad_id": 47062,
        "name": "COSMOS 2251 DEB",
        "group": "cosmos-2251-debris",
        "lat": -35.498764423284385,
        "lon": 78.86235259720112,
        "alt_km": 1053.3145693886836,
        "timestamp": "2025-12-05T04:52:15.688413+00:00",
        "meta_object_name": "COSMOS 2251 DEB",
        "meta_object_id": "1993-036BXS",
        "meta_epoch": "2025-12-04T01:57:13.752288",
        "meta_mean_motion": 13.7189048,
        "meta_eccentricity": 0.03234575,
        "meta_inclination": 74.0841,
        "meta_ra_of_asc_node": 92.4536,
        "meta_arg_of_pericenter": 219.9964,
        "meta_mean_anomaly": 322.3152,
        "meta_ephemeris_type": 0,
        "meta_classification_type": "U",
        "meta_norad_cat_id": 47062,
        "meta_element_set_no": 999,
        "meta_rev_at_epoch": 55483,
        "meta_bstar": 0.0040443248,
        "meta_mean_motion_dot": 5.303e-05,
        "meta_mean_motion_ddot": 0,
        "tle_line1": "1 47062U 93036BXS 25338.08140917  .00005303  00000+0  40443-2 0  9998",
        "tle_line2": "2 47062  74.0841  92.4536 0323457 219.9964 322.3152 13.71890480554832"
      },
      "geometry": {
        "type": "Point",
        "coordinates": [
          78.86235259720112,
          -35.498764423284385
        ]
      }
    },
    {
      "type": "Feature",
      "properties": {
        "norad_id": 47068,
        "name": "COSMOS 2251 DEB",
        "group": "cosmos-2251-debris",
        "lat": 35.731081789935075,
        "lon": -130.40418284141364,
        "alt_km": 713.4396031288979,
        "timestamp": "2025-12-05T04:52:15.688422+00:00",
        "meta_object_name": "COSMOS 2251 DEB",
        "meta_object_id": "1993-036BXY",
        "meta_epoch": "2025-12-04T00:36:34.473600",
        "meta_mean_motion": 14.53053719,
        "meta_eccentricity": 0.00184817,
        "meta_inclination": 74.0246,
        "meta_ra_of_asc_node": 219.9256,
        "meta_arg_of_pericenter": 307.28,
        "meta_mean_anomaly": 52.6676,
        "meta_ephemeris_type": 0,
        "meta_classification_type": "U",
        "meta_norad_cat_id": 47068,
        "meta_element_set_no": 999,
        "meta_rev_at_epoch": 61630,
        "meta_bstar": 0.0018552371,
        "meta_mean_motion_dot": 7.662e-05,
        "meta_mean_motion_ddot": 0,
        "tle_line1": "1 47068U 93036BXY 25338.02539900  .00007662  00000+0  18552-2 0  9998",
        "tle_line2": "2 47068  74.0246 219.9256 0018481 307.2800  52.6676 14.53053719616302"
      },
      "geometry": {
        "type": "Point",
        "coordinates": [
          -130.40418284141364,
          35.731081789935075
        ]
      }
    },
    {
      "type": "Feature",
      "properties": {
        "norad_id": 47073,
        "name": "COSMOS 2251 DEB",
        "group": "cosmos-2251-debris",
        "lat": 67.17564705159226,
        "lon": -102.35296072110586,
        "alt_km": 988.6825426776777,
        "timestamp": "2025-12-05T04:52:15.688431+00:00",
        "meta_object_name": "COSMOS 2251 DEB",
        "meta_object_id": "1993-036BYD",
        "meta_epoch": "2025-11-28T23:48:38.837952",
        "meta_mean_motion": 14.04684181,
        "meta_eccentricity": 0.01626495,
        "meta_inclination": 74.0833,
        "meta_ra_of_asc_node": 225.7586,
        "meta_arg_of_pericenter": 267.1836,
        "meta_mean_anomaly": 91.0675,
        "meta_ephemeris_type": 0,
        "meta_classification_type": "U",
        "meta_norad_cat_id": 47073,
        "meta_element_set_no": 999,
        "meta_rev_at_epoch": 60168,
        "meta_bstar": 0.0003803633,
        "meta_mean_motion_dot": 6.6e-06,
        "meta_mean_motion_ddot": 0,
        "tle_line1": "1 47073U 93036BYD 25332.99211618  .00000660  00000+0  38036-3 0  9998",
        "tle_line2": "2 47073  74.0833 225.7586 0162649 267.1836  91.0675 14.04684181601680"
      },
      "geometry": {
        "type": "Point",
        "coordinates": [
          -102.35296072110586,
          67.17564705159226
        ]
      }
    },
    {
      "type": "Feature",
      "properties": {
        "norad_id": 47074,
        "name": "COSMOS 2251 DEB",
        "group": "cosmos-2251-debris",
        "lat": 63.75672706325752,
        "lon": 107.14633911727012,
        "alt_km": 815.1723008317822,
        "timestamp": "2025-12-05T04:52:15.688440+00:00",
        "meta_object_name": "COSMOS 2251 DEB",
        "meta_object_id": "1993-036BYE",
        "meta_epoch": "2025-12-03T18:02:52.457856",
        "meta_mean_motion": 14.35498744,
        "meta_eccentricity": 0.01434773,
        "meta_inclination": 74.091,
        "meta_ra_of_asc_node": 325.1457,
        "meta_arg_of_pericenter": 355.2449,
        "meta_mean_anomaly": 179.085,
        "meta_ephemeris_type": 0,
        "meta_classification_type": "U",
        "meta_norad_cat_id": 47074,
        "meta_element_set_no": 999,
        "meta_rev_at_epoch": 2553,
        "meta_bstar": 0.0029812178,
        "meta_mean_motion_dot": 9.625e-05,
        "meta_mean_motion_ddot": 0,
        "tle_line1": "1 47074U 93036BYE 25337.75199604  .00009625  00000+0  29812-2 0  9999",
        "tle_line2": "2 47074  74.0910 325.1457 0143477 355.2449 179.0850 14.35498744 25534"
      },
      "geometry": {
        "type": "Point",
        "coordinates": [
          107.14633911727012,
          63.75672706325752
        ]
      }
    },
    {
      "type": "Feature",
      "properties": {
        "norad_id": 47116,
        "name": "COSMOS 2251 DEB",
        "group": "cosmos-2251-debris",
        "lat": 61.68412888948286,
        "lon": -71.87648592269501,
        "alt_km": 564.9086900767543,
        "timestamp": "2025-12-05T04:52:15.688450+00:00",
        "meta_object_name": "COSMOS 2251 DEB",
        "meta_object_id": "1993-036BYJ",
        "meta_epoch": "2025-11-28T02:40:22.126944",
        "meta_mean_motion": 14.97052334,
        "meta_eccentricity": 0.00224176,
        "meta_inclination": 74.0247,
        "meta_ra_of_asc_node": 270.3586,
        "meta_arg_of_pericenter": 5.4926,
        "meta_mean_anomaly": 12.2387,
        "meta_ephemeris_type": 0,
        "meta_classification_type": "U",
        "meta_norad_cat_id": 47116,
        "meta_element_set_no": 999,
        "meta_rev_at_epoch": 59292,
        "meta_bstar": 0.0024991708,
        "meta_mean_motion_dot": 0.00029033,
        "meta_mean_motion_ddot": 0,
        "tle_line1": "1 47116U 93036BYJ 25332.11136721  .00029033  00000+0  24992-2 0  9991",
        "tle_line2": "2 47116  74.0247 270.3586 0022417   5.4926  12.2387 14.97052334592926"
      },
      "geometry": {
        "type": "Point",
        "coordinates": [
          -71.87648592269501,
          61.68412888948286
        ]
      }
    },
    {
      "type": "Feature",
      "properties": {
        "norad_id": 53093,
        "name": "COSMOS 2251 DEB",
        "group": "cosmos-2251-debris",
        "lat": -27.886680646789905,
        "lon": -53.28806670250432,
        "alt_km": 751.9964485496857,
        "timestamp": "2025-12-05T04:52:15.688459+00:00",
        "meta_object_name": "COSMOS 2251 DEB",
        "meta_object_id": "1993-036BYP",
        "meta_epoch": "2025-12-04T00:41:46.059648",
        "meta_mean_motion": 14.41798306,
        "meta_eccentricity": 0.00186538,
        "meta_inclination": 74.036,
        "meta_ra_of_asc_node": 317.5991,
        "meta_arg_of_pericenter": 36.9058,
        "meta_mean_anomaly": 323.3378,
        "meta_ephemeris_type": 0,
        "meta_classification_type": "U",
        "meta_norad_cat_id": 53093,
        "meta_element_set_no": 999,
        "meta_rev_at_epoch": 17600,
        "meta_bstar": 0.0017148029,
        "meta_mean_motion_dot": 5.592e-05,
        "meta_mean_motion_ddot": 0,
        "tle_line1": "1 53093U 93036BYP 25338.02900532  .00005592  00000+0  17148-2 0  9996",
        "tle_line2": "2 53093  74.0360 317.5991 0018653  36.9058 323.3378 14.41798306176007"
      },
      "geometry": {
        "type": "Point",
        "coordinates": [
          -53.28806670250432,
          -27.886680646789905
        ]
      }
    }
  ]
}